STARLINK-30494          
1 57970U 23151G   26068.36049035 -.00001272  00000+0 -35691-4 0  9993
2 57970  43.0027 192.4566 0001155 241.5536 118.5200 15.28417441137406
STARLINK-32185          
1 60341U 24136N   26068.28404020  .00003511  00000+0  13056-3 0  9999
2 60341  53.1604  77.4677 0001635  79.0304 281.0880 15.30217520 89607
